{
  "type": "FeatureCollection",
  "features": [
    {
      "type": "Feature",
      "properties": {
        "norad_id": 30199,
        "name": "FENGYUN 1C DEB",
        "group": "fengyun-1c-debris",
        "lat": 60.293098981284835,
        "lon": -4.392784905886893,
        "alt_km": 778.987017701159,
        "timestamp": "2025-12-12T20:43:07.309652+00:00",
        "meta_object_name": "FENGYUN 1C DEB",
        "meta_object_id": "1999-025VG",
        "meta_epoch": "2025-12-12T00:41:52.962144",
        "meta_mean_motion": 14.38507192,
        "meta_eccentricity": 0.0077792,
        "meta_inclination": 98.3859,
        "meta_ra_of_asc_node": 9.7759,
        "meta_arg_of_pericenter": 310.8305,
        "meta_mean_anomaly": 112.3082,
        "meta_ephemeris_type": 0,
        "meta_classification_type": "U",
        "meta_norad_cat_id": 30199,
        "meta_element_set_no": 999,
        "meta_rev_at_epoch": 98400,
        "meta_bstar": 0.0015269,
        "meta_mean_motion_dot": 4.791e-05,
        "meta_mean_motion_ddot": 0,
        "tle_line1": "1 30199U 99025VG  25346.02908521  .00004791  00000+0  15269-2 0  9999",
        "tle_line2": "2 30199  98.3859   9.7759 0077792 310.8305 112.3082 14.38507192984003"
      },
      "geometry": {
        "type": "Point",
        "coordinates": [
          -4.392784905886893,
          60.293098981284835
        ]
      }
    },
    {
      "type": "Feature",
      "properties": {
        "norad_id": 30200,
        "name": "FENGYUN 1C DEB",
        "group": "fengyun-1c-debris",
        "lat": 24.402708470121993,
        "lon": 177.445880855228,
        "alt_km": 786.3589965633728,
        "timestamp": "2025-12-12T20:43:07.309662+00:00",
        "meta_object_name": "FENGYUN 1C DEB",
        "meta_object_id": "1999-025VH",
        "meta_epoch": "2025-12-12T00:20:32.686944",
        "meta_mean_motion": 14.22275786,
        "meta_eccentricity": 0.0147582,
        "meta_inclination": 99.1129,
        "meta_ra_of_asc_node": 180.7443,
        "meta_arg_of_pericenter": 101.3325,
        "meta_mean_anomaly": 260.4474,
        "meta_ephemeris_type": 0,
        "meta_classification_type": "U",
        "meta_norad_cat_id": 30200,
        "meta_element_set_no": 999,
        "meta_rev_at_epoch": 97972,
        "meta_bstar": 0.00021202,
        "meta_mean_motion_dot": 4.8e-06,
        "meta_mean_motion_ddot": 0,
        "tle_line1": "1 30200U 99025VH  25346.01426721  .00000480  00000+0  21202-3 0  9994",
        "tle_line2": "2 30200  99.1129 180.7443 0147582 101.3325 260.4474 14.22275786979722"
      },
      "geometry": {
        "type": "Point",
        "coordinates": [
          177.445880855228,
          24.402708470121993
        ]
      }
    },
    {
      "type": "Feature",
      "properties": {
        "norad_id": 30201,
        "name": "FENGYUN 1C DEB",
        "group": "fengyun-1c-debris",
        "lat": -61.41410170604042,
        "lon": 138.78656681714298,
        "alt_km": 802.5963620870725,
        "timestamp": "2025-12-12T20:43:07.309673+00:00",
        "meta_object_name": "FENGYUN 1C DEB",
        "meta_object_id": "1999-025VJ",
        "meta_epoch": "2025-12-12T07:30:41.712192",
        "meta_mean_motion": 14.22940382,
        "meta_eccentricity": 0.00287201,
        "meta_inclination": 99.401,
        "meta_ra_of_asc_node": 120.499,
        "meta_arg_of_pericenter": 314.0444,
        "meta_mean_anomaly": 45.8367,
        "meta_ephemeris_type": 0,
        "meta_classification_type": "U",
        "meta_norad_cat_id": 30201,
        "meta_element_set_no": 999,
        "meta_rev_at_epoch": 97821,
        "meta_bstar": 0.00068098213,
        "meta_mean_motion_dot": 1.488e-05,
        "meta_mean_motion_ddot": 0,
        "tle_line1": "1 30201U 99025VJ  25346.31298278  .00001488  00000+0  68098-3 0  9995",
        "tle_line2": "2 30201  99.4010 120.4990 0028720 314.0444  45.8367 14.22940382978210"
      },
      "geometry": {
        "type": "Point",
        "coordinates": [
          138.78656681714298,
          -61.41410170604042
        ]
      }
    },
    {
      "type": "Feature",
      "properties": {
        "norad_id": 30202,
        "name": "FENGYUN 1C DEB",
        "group": "fengyun-1c-debris",
        "lat": -69.10481095719018,
        "lon": 107.6250301057041,
        "alt_km": 742.6507765035758,
        "timestamp": "2025-12-12T20:43:07.309687+00:00",
        "meta_object_name": "FENGYUN 1C DEB",
        "meta_object_id": "1999-025VK",
        "meta_epoch": "2025-12-12T06:09:50.357376",
        "meta_mean_motion": 14.52360838,
        "meta_eccentricity": 0.00389889,
        "meta_inclination": 98.6396,
        "meta_ra_of_asc_node": 83.5316,
        "meta_arg_of_pericenter": 60.4213,
        "meta_mean_anomaly": 300.0858,
        "meta_ephemeris_type": 0,
        "meta_classification_type": "U",
        "meta_norad_cat_id": 30202,
        "meta_element_set_no": 999,
        "meta_rev_at_epoch": 98282,
        "meta_bstar": 0.0035148803,
        "meta_mean_motion_dot": 0.0001443,
        "meta_mean_motion_ddot": 0,
        "tle_line1": "1 30202U 99025VK  25346.25683284  .00014430  00000+0  35149-2 0  9995",
        "tle_line2": "2 30202  98.6396  83.5316 0038988  60.4213 300.0858 14.52360838982821"
      },
      "geometry": {
        "type": "Point",
        "coordinates": [
          107.6250301057041,
          -69.10481095719018
        ]
      }
    },
    {
      "type": "Feature",
      "properties": {
        "norad_id": 30205,
        "name": "FENGYUN 1C DEB",
        "group": "fengyun-1c-debris",
        "lat": -44.437712494385266,
        "lon": 107.1283385937788,
        "alt_km": 1004.6944895029037,
        "timestamp": "2025-12-12T20:43:07.309698+00:00",
        "meta_object_name": "FENGYUN 1C DEB",
        "meta_object_id": "1999-025VN",
        "meta_epoch": "2025-12-12T07:22:34.982112",
        "meta_mean_motion": 13.88041485,
        "meta_eccentricity": 0.01209883,
        "meta_inclination": 98.9967,
        "meta_ra_of_asc_node": 97.6557,
        "meta_arg_of_pericenter": 180.974,
        "meta_mean_anomaly": 236.5444,
        "meta_ephemeris_type": 0,
        "meta_classification_type": "U",
        "meta_norad_cat_id": 30205,
        "meta_element_set_no": 999,
        "meta_rev_at_epoch": 95632,
        "meta_bstar": 0.00053823714,
        "meta_mean_motion_dot": 6.38e-06,
        "meta_mean_motion_ddot": 0,
        "tle_line1": "1 30205U 99025VN  25346.30734933  .00000638  00000+0  53824-3 0  9998",
        "tle_line2": "2 30205  98.9967  97.6557 0120988 180.9740 236.5444 13.88041485956321"
      },
      "geometry": {
        "type": "Point",
        "coordinates": [
          107.1283385937788,
          -44.437712494385266
        ]
      }
    },
    {
      "type": "Feature",
      "properties": {
        "norad_id": 30206,
        "name": "FENGYUN 1C DEB",
        "group": "fengyun-1c-debris",
        "lat": -81.61657926358068,
        "lon": 86.91047957998104,
        "alt_km": 798.0124079311872,
        "timestamp": "2025-12-12T20:43:07.309708+00:00",
        "meta_object_name": "FENGYUN 1C DEB",
        "meta_object_id": "1999-025VP",
        "meta_epoch": "2025-12-11T23:35:48.729696",
        "meta_mean_motion": 14.49149,
        "meta_eccentricity": 0.0146031,
        "meta_inclination": 98.232,
        "meta_ra_of_asc_node": 345.2639,
        "meta_arg_of_pericenter": 38.6491,
        "meta_mean_anomaly": 322.5047,
        "meta_ephemeris_type": 0,
        "meta_classification_type": "U",
        "meta_norad_cat_id": 30206,
        "meta_element_set_no": 999,
        "meta_rev_at_epoch": 99390,
        "meta_bstar": 0.0007635,
        "meta_mean_motion_dot": 3.279e-05,
        "meta_mean_motion_ddot": 0,
        "tle_line1": "1 30206U 99025VP  25345.98320289  .00003279  00000+0  76350-3 0  9990",
        "tle_line2": "2 30206  98.2320 345.2639 0146031  38.6491 322.5047 14.49149000993900"
      },
      "geometry": {
        "type": "Point",
        "coordinates": [
          86.91047957998104,
          -81.61657926358068
        ]
      }
    },
    {
      "type": "Feature",
      "properties": {
        "norad_id": 30207,
        "name": "FENGYUN 1C DEB",
        "group": "fengyun-1c-debris",
        "lat": -30.27627485656663,
        "lon": -87.49779672476777,
        "alt_km": 880.6469312589834,
        "timestamp": "2025-12-12T20:43:07.309719+00:00",
        "meta_object_name": "FENGYUN 1C DEB",
        "meta_object_id": "1999-025VQ",
        "meta_epoch": "2025-12-12T07:51:59.285664",
        "meta_mean_motion": 13.79136313,
        "meta_eccentricity": 0.02605371,
        "meta_inclination": 98.574,
        "meta_ra_of_asc_node": 97.0697,
        "meta_arg_of_pericenter": 149.471,
        "meta_mean_anomaly": 281.156,
        "meta_ephemeris_type": 0,
        "meta_classification_type": "U",
        "meta_norad_cat_id": 30207,
        "meta_element_set_no": 999,
        "meta_rev_at_epoch": 95057,
        "meta_bstar": 0.00042239038,
        "meta_mean_motion_dot": 5.21e-06,
        "meta_mean_motion_ddot": 0,
        "tle_line1": "1 30207U 99025VQ  25346.32776951  .00000521  00000+0  42239-3 0  9997",
        "tle_line2": "2 30207  98.5740  97.0697 0260537 149.4710 281.1560 13.79136313950570"
      },
      "geometry": {
        "type": "Point",
        "coordinates": [
          -87.49779672476777,
          -30.27627485656663
        ]
      }
    }
  ]
}